{"meta":{"timestamp":"2022-03-06T16:00:13.084946Z","stations_updated":"2022-02-05","cache-timestamp":"2022-03-06T16:00:06.685000Z"},"altimeter":{"repr":"A3006","value":30.06,"spoken":"three zero point zero six"},"clouds":[{"repr":"FEW020","type":"FEW","altitude":20,"modifier":null,"direction":null},{"repr":"BKN065","type":"BKN","altitude":65,"modifier":null,"direction":null},{"repr":"OVC100","type":"OVC","altitude":100,"modifier":null,"direction":null}],"flight_rules":"VFR","other":[],"visibility":{"repr":"6","value":6,"spoken":"six"},"wind_direction":{"repr":"200","value":200,"spoken":"two zero zero"},"wind_gust":null,"wind_speed":{"repr":"04","value":4,"spoken":"four"},"wx_codes":[{"repr":"-RA","value":"Light Rain"},{"repr":"BR","value":"Mist"}],"raw":"KJFK 061551Z 20004KT 6SM -RA BR FEW020 BKN065 OVC100 08/08 A3006 RMK AO2 RAB25 SLP180 P0003 T00830078","sanitized":"KJFK 061551Z 20004KT 6SM -RA BR FEW020 BKN065 OVC100 08/08 A3006 RMK AO2 RAB25 SLP180 P0003 T00830078","station":"KJFK","time":{"repr":"061551Z","dt":"2022-03-06T15:51:00Z"},"remarks":"RMK AO2 RAB25 SLP180 P0003 T00830078","dewpoint":{"repr":"08","value":8,"spoken":"eight"},"relative_humidity":0.9665731399975396,"remarks_info":{"maximum_temperature_6":null,"minimum_temperature_6":null,"pressure_tendency":null,"precip_36_hours":null,"precip_24_hours":null,"sunshine_minutes":null,"codes":[{"repr":"AO2","value":"Automated with precipitation sensor"},{"repr":"RAB25","value":"Rain began at :25"}],"dewpoint_decimal":{"repr":"0078","value":7.8,"spoken":"seven point eight"},"maximum_temperature_24":null,"minimum_temperature_24":null,"precip_hourly":{"repr":"P0003","value":0.03,"spoken":"zero point zero three"},"sea_level_pressure":{"repr":"SLP180","value":1018.0,"spoken":"one zero one eight point zero"},"snow_depth":null,"temperature_decimal":{"repr":"0083","value":8.3,"spoken":"eight point three"}},"runway_visibility":[],"temperature":{"repr":"08","value":8,"spoken":"eight"},"wind_variable_direction":[],"density_altitude":-928,"pressure_altitude":-127,"units":{"accumulation":"in","altimeter":"inHg","altitude":"ft","temperature":"C","visibility":"sm","wind_speed":"kt"}}