{"meta":{"timestamp":"2022-03-06T00:51:33.390393Z","stations_updated":"2022-02-05"},"altimeter":{"repr":"Q1026","value":1026,"spoken":"one zero two six"},"clouds":[{"repr":"FEW020///","type":"FEW","altitude":20,"modifier":null,"direction":null},{"repr":"BKN046///","type":"BKN","altitude":46,"modifier":null,"direction":null}],"flight_rules":"VFR","other":[],"visibility":{"repr":"9999","value":9999,"spoken":"nine nine nine nine"},"wind_direction":{"repr":"030","value":30,"spoken":"zero three zero"},"wind_gust":null,"wind_speed":{"repr":"10","value":10,"spoken":"one zero"},"wx_codes":[],"raw":"EGLF 060020Z AUTO 03010KT 360V060 9999 FEW020/// BKN046/// 04/01 Q1026","sanitized":"EGLF 060020Z 03010KT 360V060 9999 FEW020/// BKN046/// 04/01 Q1026","station":"EGLF","time":{"repr":"060020Z","dt":"2022-03-06T00:20:00Z"},"remarks":"","dewpoint":{"repr":"01","value":1,"spoken":"one"},"relative_humidity":0.8079090255626445,"remarks_info":null,"runway_visibility":[],"temperature":{"repr":"04","value":4,"spoken":"four"},"wind_variable_direction":[{"repr":"360","value":360,"spoken":"three six zero"},{"repr":"060","value":60,"spoken":"zero six zero"}],"density_altitude":-1403,"pressure_altitude":-140,"units":{"accumulation":"in","altimeter":"hPa","altitude":"ft","temperature":"C","visibility":"m","wind_speed":"kt"}}