{"meta":{"timestamp":"2022-03-06T02:00:17.508214Z","stations_updated":"2022-02-05"},"altimeter":{"repr":"A3013","value":30.13,"spoken":"three zero point one three"},"clouds":[{"repr":"SCT040","type":"SCT","altitude":40,"modifier":null,"direction":null}],"flight_rules":"VFR","other":[],"visibility":{"repr":"10","value":10,"spoken":"one zero"},"wind_direction":{"repr":"280","value":280,"spoken":"two eight zero"},"wind_gust":null,"wind_speed":{"repr":"14","value":14,"spoken":"one four"},"wx_codes":[],"raw":"KPAO 060047Z 28014KT 10SM SCT040 13/02 A3013","sanitized":"KPAO 060047Z 28014KT 10SM SCT040 13/02 A3013","station":"KPAO","time":{"repr":"060047Z","dt":"2022-03-06T00:47:00Z"},"remarks":"","dewpoint":{"repr":"02","value":2,"spoken":"two"},"relative_humidity":0.4716092787865217,"remarks_info":null,"runway_visibility":[],"temperature":{"repr":"13","value":13,"spoken":"one three"},"wind_variable_direction":[],"density_altitude":-445,"pressure_altitude":-206,"units":{"accumulation":"in","altimeter":"inHg","altitude":"ft","temperature":"C","visibility":"sm","wind_speed":"kt"}}