{"meta":{"timestamp":"2022-03-06T15:58:57.667796Z","stations_updated":"2022-02-05","cache-timestamp":"2022-03-06T15:58:21.089000Z"},"altimeter":{"repr":"A3025","value":30.25,"spoken":"three zero point two five"},"clouds":[{"repr":"FEW008","type":"FEW","altitude":8,"modifier":null,"direction":null}],"flight_rules":"VFR","other":[],"visibility":{"repr":"10","value":10,"spoken":"one zero"},"wind_direction":{"repr":"000","value":0,"spoken":"zero zero zero"},"wind_gust":null,"wind_speed":{"repr":"00","value":0,"spoken":"zero"},"wx_codes":[],"raw":"KSFO 061456Z 00000KT 10SM FEW008 08/06 A3025 RMK AO2 SLP245 T00780061 53018","sanitized":"KSFO 061456Z 00000KT 10SM FEW008 08/06 A3025 RMK AO2 SLP245 T00780061 53018","station":"KSFO","time":{"repr":"061456Z","dt":"2022-03-06T14:56:00Z"},"remarks":"RMK AO2 SLP245 T00780061 53018","dewpoint":{"repr":"06","value":6,"spoken":"six"},"relative_humidity":0.8899294340036578,"remarks_info":{"maximum_temperature_6":null,"minimum_temperature_6":null,"pressure_tendency":{"repr":"53018","tendency":"Decreasing or steady, then increasing","change":1.8},"precip_36_hours":null,"precip_24_hours":null,"sunshine_minutes":null,"codes":[{"repr":"AO2","value":"Automated with precipitation sensor"}],"dewpoint_decimal":{"repr":"0061","value":6.1,"spoken":"six point one"},"maximum_temperature_24":null,"minimum_temperature_24":null,"precip_hourly":null,"sea_level_pressure":{"repr":"SLP245","value":1024.5,"spoken":"one zero two four point five"},"snow_depth":null,"temperature_decimal":{"repr":"0078","value":7.8,"spoken":"seven point eight"}},"runway_visibility":[],"temperature":{"repr":"08","value":8,"spoken":"eight"},"wind_variable_direction":[],"density_altitude":-1178,"pressure_altitude":-317,"units":{"accumulation":"in","altimeter":"inHg","altitude":"ft","temperature":"C","visibility":"sm","wind_speed":"kt"}}