{"meta":{"timestamp":"2022-03-06T02:02:02.078818Z","stations_updated":"2022-02-05","cache-timestamp":"2022-03-06T02:01:12.102000Z"},"altimeter":{"repr":"A3014","value":30.14,"spoken":"three zero point one four"},"clouds":[{"repr":"FEW027","type":"FEW","altitude":27,"modifier":null,"direction":null},{"repr":"FEW055","type":"FEW","altitude":55,"modifier":null,"direction":null},{"repr":"SCT200","type":"SCT","altitude":200,"modifier":null,"direction":null}],"flight_rules":"VFR","other":[],"visibility":{"repr":"10","value":10,"spoken":"one zero"},"wind_direction":{"repr":"280","value":280,"spoken":"two eight zero"},"wind_gust":null,"wind_speed":{"repr":"10","value":10,"spoken":"one zero"},"wx_codes":[],"raw":"KSFO 060156Z 28010KT 10SM FEW027 FEW055 SCT200 11/06 A3014 RMK AO2 SLP204 T01110056","sanitized":"KSFO 060156Z 28010KT 10SM FEW027 FEW055 SCT200 11/06 A3014 RMK AO2 SLP204 T01110056","station":"KSFO","time":{"repr":"060156Z","dt":"2022-03-06T01:56:00Z"},"remarks":"RMK AO2 SLP204 T01110056","dewpoint":{"repr":"06","value":6,"spoken":"six"},"relative_humidity":0.688572216070134,"remarks_info":{"maximum_temperature_6":null,"minimum_temperature_6":null,"pressure_tendency":null,"precip_36_hours":null,"precip_24_hours":null,"sunshine_minutes":null,"codes":[{"repr":"AO2","value":"Automated with precipitation sensor"}],"dewpoint_decimal":{"repr":"0056","value":5.6,"spoken":"five point six"},"maximum_temperature_24":null,"minimum_temperature_24":null,"precip_hourly":null,"sea_level_pressure":{"repr":"SLP204","value":1020.4,"spoken":"one zero two zero point four"},"snow_depth":null,"temperature_decimal":{"repr":"0111","value":11.1,"spoken":"one one point one"}},"runway_visibility":[],"temperature":{"repr":"11","value":11,"spoken":"one one"},"wind_variable_direction":[],"density_altitude":-672,"pressure_altitude":-207,"units":{"accumulation":"in","altimeter":"inHg","altitude":"ft","temperature":"C","visibility":"sm","wind_speed":"kt"}}