{"meta":{"timestamp":"2022-03-06T00:51:24.090182Z","stations_updated":"2022-02-05","cache-timestamp":"2022-03-06T00:50:50.213000Z"},"altimeter":{"repr":"Q1027","value":1027,"spoken":"one zero two seven"},"clouds":[{"repr":"FEW021","type":"FEW","altitude":21,"modifier":null,"direction":null}],"flight_rules":"VFR","other":[],"visibility":{"repr":"9999","value":9999,"spoken":"nine nine nine nine"},"wind_direction":{"repr":"040","value":40,"spoken":"zero four zero"},"wind_gust":null,"wind_speed":{"repr":"07","value":7,"spoken":"seven"},"wx_codes":[],"raw":"EGLL 060020Z AUTO 04007KT 010V070 9999 FEW021 04/01 Q1027","sanitized":"EGLL 060020Z 04007KT 010V070 9999 FEW021 04/01 Q1027","station":"EGLL","time":{"repr":"060020Z","dt":"2022-03-06T00:20:00Z"},"remarks":"","dewpoint":{"repr":"01","value":1,"spoken":"one"},"relative_humidity":0.8079090255626445,"remarks_info":null,"runway_visibility":[],"temperature":{"repr":"04","value":4,"spoken":"four"},"wind_variable_direction":[{"repr":"010","value":10,"spoken":"zero one zero"},{"repr":"070","value":70,"spoken":"zero seven zero"}],"density_altitude":-1624,"pressure_altitude":-324,"units":{"accumulation":"in","altimeter":"hPa","altitude":"ft","temperature":"C","visibility":"m","wind_speed":"kt"}}